[{"OBJECT_NAME":"XINGYUN-2 02","OBJECT_ID":"2020-028B","EPOCH":"2026-03-10T00:08:18.521088","MEAN_MOTION":15.11086378,"ECCENTRICITY":0.0009258,"INCLINATION":97.5114,"RA_OF_ASC_NODE":76.7595,"ARG_OF_PERICENTER":249.9829,"MEAN_ANOMALY":110.0404,"EPHEMERIS_TYPE":0,"CLASSIFICATION_TYPE":"U","NORAD_CAT_ID":45603,"ELEMENT_SET_NO":999,"REV_AT_EPOCH":31985,"BSTAR":0.00013296102,"MEAN_MOTION_DOT":2.163e-5,"MEAN_MOTION_DDOT":0},{"OBJECT_NAME":"STARLINK-3126","OBJECT_ID":"2021-104AN","EPOCH":"2026-03-09T16:21:30.470688","MEAN_MOTION":15.08840954,"ECCENTRICITY":0.00012498,"INCLINATION":53.2177,"RA_OF_ASC_NODE":209.1691,"ARG_OF_PERICENTER":91.4713,"MEAN_ANOMALY":268.6423,"EPHEMERIS_TYPE":0,"CLASSIFICATION_TYPE":"U","NORAD_CAT_ID":49444,"ELEMENT_SET_NO":999,"REV_AT_EPOCH":23891,"BSTAR":9.480202e-6,"MEAN_MOTION_DOT":-1.37e-6,"MEAN_MOTION_DDOT":0}]
